ORBCOMM FM24 [-]        
1 25478U 98053D   24052.62934383  .00001636  00000+0  61474-3 0  9992
2 25478  45.0097  27.2010 0002931 314.4260  45.6347 14.35282616328190
ORBCOMM FM25 [-]        
1 25479U 98053E   24052.24660674  .00001992  00000+0  73805-3 0  9996
2 25479  45.0087  27.2466 0005041 335.5508  24.5099 14.35265388328433
ORBCOMM FM26 [-]        
1 25480U 98053F   24052.92026546  .00001403  00000+0  53968-3 0  9992
2 25480  45.0084  17.8705 0006384   2.8257 357.2625 14.34763098328474
ORBCOMM FM27 [+]        
1 25481U 98053G   24052.65126696  .00001640  00000+0  61670-3 0  9992
2 25481  45.0071  25.5997 0001578 295.3837  64.6847 14.35241948328429
ORBCOMM FM28 [-]        
1 25482U 98053H   24052.80162808  .00001440  00000+0  54238-3 0  9995
2 25482  45.0071 323.6291 0004406  33.0056 327.1066 14.35707308329116
ORBCOMM FM30 [-]        
1 25980U 99065A   24052.68097872  .00001519  00000+0  57883-3 0  9992
2 25980  45.0295 204.4516 0006363 127.1007 233.0422 14.34902724265239
ORBCOMM FM31 [-]        
1 25981U 99065B   24052.71653646  .00001622  00000+0  61444-3 0  9997
2 25981  45.0211 198.0363 0003970 156.8447 203.2580 14.34915711264798
ORBCOMM FM32 [+]        
1 25982U 99065C   24052.71107309  .00001454  00000+0  56717-3 0  9998
2 25982  45.0147 211.2940 0006298 150.5391 209.5812 14.33883112265438
